GLOBALSTAR M094         
1 39074U 13005C   25048.68806257 -.00000094  00000+0  54579-4 0  9990
2 39074  51.9942 185.9557 0000905  83.1846 276.9123 12.62268274557286
GLOBALSTAR M096         
1 39075U 13005D   25048.93886477 -.00000106  00000+0 -11503-4 0  9996
2 39075  52.0047 233.6156 0000934  70.4423 289.6545 12.62268375556238
GLOBALSTAR M078         
1 39076U 13005E   25048.91175251 -.00000131  00000+0 -15204-3 0  9995
2 39076  51.9895 318.3668 0000508 309.1904  50.8918 12.62271791554854
GLOBALSTAR M095         
1 39077U 13005F   25049.09703604 -.00000066  00000+0  20952-3 0  9997
2 39077  51.9817 315.0625 0000679  17.7498 342.3392 12.62266549555092
GLOBALSTAR M087         
1 52888U 22064A   25048.81100665 -.00000092  00000+0  64557-4 0  9993
2 52888  51.9787  97.3372 0000350 110.9713 249.1191 12.62268687129963
